NORAD_CAT_ID,OBJECT_NAME,OBJECT_TYPE,EPOCH,MEAN_MOTION,ECCENTRICITY,INCLINATION,RA_OF_ASC_NODE,ARG_OF_PERICENTER,MEAN_ANOMALY,BSTAR,MEAN_MOTION_DOT,MEAN_MOTION_DDOT,TLE_LINE0,TLE_LINE1,TLE_LINE2,SEMIMAJOR_AXIS,PERIOD,APOGEE,PERIGEE,DECAYED
55305.0,STARLINK-5316,PAYLOAD,2024-01-12 22:01:10,14.98325222,0.0002512,69.9997,208.3739,269.1761,90.911,-2.7816e-05,-4.25e-06,0.0,0 STARLINK-5316,1 55305U 23010AN  24012.91747761 -.00000425  00000-0 -27816-4 0  9996,2 55305  69.9997 208.3739 0002512 269.1761  90.9110 14.98325222 55427,6950.208,96.107,573.819,570.327,0.0
55305.0,STARLINK-5316,PAYLOAD,2024-01-12 23:37:18,14.98324963,0.0002515,69.9997,208.2056,269.766,90.321,-2.9994e-05,-4.51e-06,0.0,0 STARLINK-5316,1 55305U 23010AN  24012.98423804 -.00000451  00000-0 -29994-4 0  9990,2 55305  69.9997 208.2056 0002515 269.7660  90.3210 14.98324963 55117,6950.208,96.107,573.821,570.325,0.0
55305.0,STARLINK-5316,PAYLOAD,2024-01-13 14:02:30,14.98330692,0.0002648,69.9995,206.6906,270.9897,89.0959,8.4496e-06,8e-08,0.0,0 STARLINK-5316,1 55305U 23010AN  24013.58507381  .00000008  00000-0  84496-5 0  9995,2 55305  69.9995 206.6906 0002648 270.9897  89.0959 14.98330692 55520,6950.191,96.107,573.896,570.215,0.0
55305.0,STARLINK-5316,PAYLOAD,2024-01-13 18:50:54,14.98331267,0.0002623,69.9997,206.1859,271.2419,88.8439,1.8056e-05,1.22e-06,0.0,0 STARLINK-5316,1 55305U 23010AN  24013.78535306  .00000122  00000-0  18056-4 0  9990,2 55305  69.9997 206.1859 0002623 271.2419  88.8439 14.98331267 55238,6950.189,96.107,573.877,570.231,0.0
55305.0,STARLINK-5316,PAYLOAD,2024-01-14 14:04:31,14.98329212,0.0002659,69.9998,204.1665,271.2211,88.8643,3.6365e-05,3.41e-06,0.0,0 STARLINK-5316,1 55305U 23010AN  24014.58647339  .00000341  00000-0  36365-4 0  9995,2 55305  69.9998 204.1665 0002659 271.2211  88.8643 14.98329212 55673,6950.195,96.107,573.908,570.212,0.0
55305.0,STARLINK-5316,PAYLOAD,2024-01-14 18:52:55,14.98329169,0.0002685,69.9997,203.6613,271.7887,88.2964,3.2801e-05,2.98e-06,0.0,0 STARLINK-5316,1 55305U 23010AN  24014.78675351  .00000298  00000-0  32801-4 0  9994,2 55305  69.9997 203.6613 0002685 271.7887  88.2964 14.98329169 55381,6950.195,96.107,573.927,570.194,0.0
55305.0,STARLINK-5316,PAYLOAD,2024-01-14 22:05:11,14.98330619,0.0002658,69.9997,203.3247,271.4643,88.6212,4.8221e-05,4.82e-06,0.0,0 STARLINK-5316,1 55305U 23010AN  24014.92027202  .00000482  00000-0  48221-4 0  9994,2 55305  69.9997 203.3247 0002658 271.4643  88.6212 14.98330619 55728,6950.191,96.107,573.903,570.209,0.0
55305.0,STARLINK-5316,PAYLOAD,2024-01-15 14:06:31,14.98334564,0.0002647,69.9997,201.6415,271.2707,88.8149,1.3512e-05,6.8e-07,0.0,0 STARLINK-5316,1 55305U 23010AN  24015.58786915  .00000068  00000-0  13512-4 0  9995,2 55305  69.9997 201.6415 0002647 271.2707  88.8149 14.98334564 55828,6950.179,96.107,573.883,570.204,0.0
55305.0,STARLINK-5316,PAYLOAD,2024-01-15 18:54:56,14.98334509,0.0002658,69.9998,201.1366,271.4397,88.6458,1.2456e-05,5.6e-07,0.0,0 STARLINK-5316,1 55305U 23010AN  24015.78814857  .00000056  00000-0  12456-4 0  9997,2 55305  69.9998 201.1366 0002658 271.4397  88.6458 14.98334509 55536,6950.179,96.107,573.891,570.197,0.0
55305.0,STARLINK-5316,PAYLOAD,2024-01-15 20:31:04,14.98335185,0.0002637,69.9998,200.9684,270.9613,89.1244,2.0608e-05,1.53e-06,0.0,0 STARLINK-5316,1 55305U 23010AN  24015.85490765  .00000153  00000-0  20608-4 0  9999,2 55305  69.9998 200.9684 0002637 270.9613  89.1244 14.98335185 55864,6950.177,96.107,573.875,570.209,0.0
55305.0,STARLINK-5316,PAYLOAD,2024-01-16 12:32:25,14.98325998,0.0002453,70.0002,199.2848,266.6256,93.4622,-6.203e-05,-8.33e-06,0.0,0 STARLINK-5316,1 55305U 23010AN  24016.52251486 -.00000833  00000-0 -62030-4 0  9991,2 55305  70.0002 199.2848 0002453 266.6256  93.4622 14.98325998 55641,6950.205,96.107,573.775,570.365,0.0
55305.0,STARLINK-5316,PAYLOAD,2024-01-16 14:08:33,14.98325538,0.0002466,70.0002,199.1166,266.9261,93.1616,-6.7284e-05,-8.96e-06,0.0,0 STARLINK-5316,1 55305U 23010AN  24016.58927539 -.00000896  00000-0 -67284-4 0  9991,2 55305  70.0002 199.1166 0002466 266.9261  93.1616 14.98325538 55972,6950.207,96.107,573.786,570.358,0.0
55305.0,STARLINK-5316,PAYLOAD,2024-01-16 22:09:13,14.98324392,0.0002563,70.0001,198.275,271.3707,88.7159,-7.8179e-05,-1.025e-05,0.0,0 STARLINK-5316,1 55305U 23010AN  24016.92307751 -.00001025  00000-0 -78179-4 0  9997,2 55305  70.0001 198.2750 0002563 271.3707  88.7159 14.98324392 56029,6950.21,96.107,573.857,570.294,0.0
55305.0,STARLINK-5316,PAYLOAD,2024-01-17 12:34:26,14.98331068,0.0002584,70.0002,196.7602,273.2255,86.8608,-2.7065e-05,-4.16e-06,0.0,0 STARLINK-5316,1 55305U 23010AN  24017.52391255 -.00000416  00000-0 -27065-4 0  9997,2 55305  70.0002 196.7602 0002584 273.2255  86.8608 14.98331068 55790,6950.19,96.107,573.851,570.259,0.0
55305.0,STARLINK-5316,PAYLOAD,2024-01-17 14:10:34,14.98330879,0.0002592,70.0002,196.592,273.0115,87.0748,-2.928e-05,-4.42e-06,0.0,0 STARLINK-5316,1 55305U 23010AN  24017.59067268 -.00000442  00000-0 -29280-4 0  9998,2 55305  70.0002 196.5920 0002592 273.0115  87.0748 14.98330879 56128,6950.19,96.107,573.857,570.254,0.0
55305.0,STARLINK-5316,PAYLOAD,2024-01-17 22:11:14,14.98330531,0.0002603,70.0003,195.7506,273.4419,86.6442,-2.7672e-05,-4.23e-06,0.0,0 STARLINK-5316,1 55305U 23010AN  24017.92447289 -.00000423  00000-0 -27672-4 0  9992,2 55305  70.0003 195.7506 0002603 273.4419  86.6442 14.98330531 56170,6950.191,96.107,573.865,570.247,0.0
55305.0,STARLINK-5316,PAYLOAD,2024-01-18 14:12:34,14.98330656,0.0002748,70.0,194.0674,270.9963,89.0881,0.00010637,1.176e-05,0.0,0 STARLINK-5316,1 55305U 23010AN  24018.59206802  .00001176  00000-0  10637-3 0  9996,2 55305  70.0000 194.0674 0002748 270.9963  89.0881 14.98330656 56274,6950.191,96.107,573.966,570.146,0.0
55305.0,STARLINK-5316,PAYLOAD,2024-01-18 19:00:58,14.98332193,0.0002723,70.0001,193.5625,271.5834,88.5013,0.00011885,1.325e-05,0.0,0 STARLINK-5316,1 55305U 23010AN  24018.79234658  .00001325  00000-0  11885-3 0  9990,2 55305  70.0001 193.5625 0002723 271.5834  88.5013 14.98332193 55988,6950.186,96.107,573.944,570.159,0.0
55305.0,STARLINK-5316,PAYLOAD,2024-01-18 20:37:06,14.98333065,0.0002717,70.0001,193.3942,271.8009,88.2839,0.00012618,1.413e-05,0.0,0 STARLINK-5316,1 55305U 23010AN  24018.85910569  .00001413  00000-0  12618-3 0  9992,2 55305  70.0001 193.3942 0002717 271.8009  88.2839 14.98333065 56318,6950.183,96.107,573.937,570.16,0.0
55305.0,STARLINK-5316,PAYLOAD,2024-01-19 14:14:35,14.98331296,0.0002702,70.0002,191.5431,272.5946,87.4904,3.5829e-06,-5e-07,0.0,0 STARLINK-5316,1 55305U 23010AN  24019.59346898 -.00000050  00000-0  35829-5 0  9990,2 55305  70.0002 191.5431 0002702 272.5946  87.4904 14.98331296 56424,6950.189,96.107,573.932,570.176,0.0
55305.0,STARLINK-5316,PAYLOAD,2024-01-19 19:02:59,14.98330712,0.0002725,70.0003,191.0383,272.9725,87.1122,-4.943e-06,-1.52e-06,0.0,0 STARLINK-5316,1 55305U 23010AN  24019.79374932 -.00000152  00000-0 -49430-5 0  9999,2 55305  70.0003 191.0383 0002725 272.9725  87.1122 14.98330712 56139,6950.191,96.107,573.95,570.162,0.0
55305.0,STARLINK-5316,PAYLOAD,2024-01-19 20:39:07,14.98331453,0.0002715,70.0003,190.8701,272.727,87.3578,3.3159e-06,-5.3e-07,0.0,0 STARLINK-5316,1 55305U 23010AN  24019.86050849 -.00000053  00000-0  33159-5 0  9995,2 55305  70.0003 190.8701 0002715 272.7270  87.3578 14.98331453 56468,6950.188,96.107,573.94,570.166,0.0
55305.0,STARLINK-5316,PAYLOAD,2024-01-20 14:16:36,14.98328525,0.0002525,70.0009,189.0192,266.3169,93.7702,-8.636e-05,-1.123e-05,0.0,0 STARLINK-5316,1 55305U 23010AN  24020.59487210 -.00001123  00000-0 -86360-4 0  9994,2 55305  70.0009 189.0192 0002525 266.3169  93.7702 14.98328525 56571,6950.197,96.107,573.817,570.308,0.0
55305.0,STARLINK-5316,PAYLOAD,2024-01-20 19:05:01,14.98328179,0.0002538,70.0009,188.5144,267.1373,92.9495,-8.468e-05,-1.103e-05,0.0,0 STARLINK-5316,1 55305U 23010AN  24020.79515244 -.00001103  00000-0 -84680-4 0  9996,2 55305  70.0009 188.5144 0002538 267.1373  92.9495 14.98328179 56285,6950.199,96.107,573.827,570.3,0.0
55305.0,STARLINK-5316,PAYLOAD,2024-01-20 20:41:09,14.98328458,0.0002546,70.0009,188.3462,267.9215,92.1653,-8.0139e-05,-1.049e-05,0.0,0 STARLINK-5316,1 55305U 23010AN  24020.86191222 -.00001049  00000-0 -80139-4 0  9994,2 55305  70.0009 188.3462 0002546 267.9215  92.1653 14.98328458 56613,6950.198,96.107,573.832,570.293,0.0
55305.0,STARLINK-5316,PAYLOAD,2024-01-21 19:07:01,14.98330304,0.0002644,70.0009,185.9902,268.7812,91.3044,1.8e-05,1.22e-06,0.0,0 STARLINK-5316,1 55305U 23010AN  24021.79654794  .00000122  00000-0  18000-4 0  9992,2 55305  70.0009 185.9902 0002644 268.7812  91.3044 14.98330304 56434,6950.192,96.107,573.895,570.219,0.0
55305.0,STARLINK-5316,PAYLOAD,2024-01-21 20:43:09,14.98330443,0.0002653,70.0009,185.8219,269.321,90.7645,1.8842e-05,1.32e-06,0.0,0 STARLINK-5316,1 55305U 23010AN  24021.86330783  .00000132  00000-0  18842-4 0  9994,2 55305  70.0009 185.8219 0002653 269.3210  90.7645 14.98330443 56763,6950.192,96.107,573.9,570.213,0.0
55305.0,STARLINK-5316,PAYLOAD,2024-01-22 19:09:05,14.98297849,0.0002843,70.0007,183.4659,264.2601,95.8234,-0.00030115,-3.681e-05,0.0,0 STARLINK-5316,1 55305U 23010AN  24022.79797870 -.00003681  00000-0 -30115-3 0  9991,2 55305  70.0007 183.4659 0002843 264.2601  95.8234 14.98297849 56584,6950.292,96.109,574.133,570.181,0.0
55305.0,STARLINK-5316,PAYLOAD,2024-01-22 20:45:13,14.98301906,0.0003383,70.0003,183.2932,288.8625,71.2167,-0.0001645,-2.054e-05,0.0,0 STARLINK-5316,1 55305U 23010AN  24022.86473470 -.00002054  00000-0 -16450-3 0  9995,2 55305  70.0003 183.2932 0003383 288.8625  71.2167 14.98301906 56910,6950.28,96.109,574.496,569.793,0.0
55305.0,STARLINK-5316,PAYLOAD,2024-01-23 11:10:25,14.98315,0.0004024,69.9975,181.7761,281.4699,78.6008,-0.00012562,-1.591e-05,0.0,0 STARLINK-5316,1 55305U 23010AN  24023.46556921 -.00001591  00000-0 -12562-3 0  9990,2 55305  69.9975 181.7761 0004024 281.4699  78.6008 14.98315000 56680,6950.239,96.108,574.901,569.308,0.0
